BEIDOU 3 (C01)          
1 36287U 10001A   21314.93719238 -.00000287  00000-0  00000-0 0  9999
2 36287   1.7205  42.6845 0002214  75.0172  50.4842  1.00269705 43328
BEIDOU 5 (C06)          
1 36828U 10036A   21314.76874948 -.00000097  00000-0  00000-0 0  9998
2 36828  54.1796 178.2427 0023273 176.3254  78.6081  1.00261303 41389
BEIDOU 6 (C04)          
1 37210U 10057A   21314.86924938 -.00000118  00000-0  00000-0 0  9997
2 37210   0.7867  42.2552 0007820 155.4038 325.5707  1.00272678 40440
BEIDOU 7 (C07)          
1 37256U 10068A   21314.68661072 -.00000202  00000-0  00000+0 0  9999
2 37256  50.6055 292.2605 0017297 191.5027 281.5168  1.00262362 39952
BEIDOU 8 (C08)          
1 37384U 11013A   21314.71522190 -.00000193  00000-0  00000-0 0  9993
2 37384  59.9779  56.4400 0019521 185.0334 171.9019  1.00267857 38829
BEIDOU 9 (C09)          
1 37763U 11038A   21314.90734792 -.00000060  00000-0  00000+0 0  9997
2 37763  54.4655 180.7059 0086154 225.9768  65.6219  1.00280187 37804
BEIDOU 10 (C10)         
1 37948U 11073A   21315.30759990 -.00000150  00000-0  00000+0 0  9993
2 37948  50.7167 291.8781 0078291 218.6001 105.4772  1.00260012 36568
BEIDOU 11 (C05)         
1 38091U 12008A   21315.13613719  .00000050  00000-0  00000+0 0  9999
2 38091   1.8711  70.6920 0003212 284.4477 163.1054  1.00273023 35645
BEIDOU 12 (C11)         
1 38250U 12018A   21315.09735587 -.00000099  00000-0  00000+0 0  9994
2 38250  56.7405   0.7733 0024343 247.5663  84.8511  1.86234440 65017
BEIDOU 13 (C12)         
1 38251U 12018B   21314.49079686 -.00000098  00000-0  00000-0 0  9999
2 38251  56.6594   0.1329 0015319 248.2162  81.8438  1.86234205 65009
BEIDOU 15 (C14)         
1 38775U 12050B   21314.69793771  .00000059  00000-0  00000-0 0  9992
2 38775  55.2790 119.0534 0011621 329.0962 336.9671  1.86231345 62382
BEIDOU 16 (C02)         
1 38953U 12059A   21314.68021927 -.00000181  00000-0  00000+0 0  9991
2 38953   1.4499  84.3843 0009732 279.5313  14.9787  1.00274625 33209
BEIDOU 17 (C31)         
1 40549U 15019A   21314.47947628 -.00000167  00000-0  00000+0 0  9990
2 40549  52.2542 315.2995 0037789 190.8077 171.0343  1.00290074 24248
BEIDOU 18 (C57)         
1 40748U 15037A   21315.21391649 -.00000099  00000-0  00000+0 0  9994
2 40748  55.9192 359.1078 0001640 327.0253  37.6008  1.86233469 42857
BEIDOU 19 (C58)         
1 40749U 15037B   21314.42249572 -.00000098  00000-0  00000+0 0  9993
2 40749  55.9217 359.1224 0004725 290.1910  39.2612  1.86232178 42828
BEIDOU 20 (C18)         
1 40938U 15053A   21314.38225397 -.00000130  00000-0  00000+0 0  9992
2 40938  51.8439 278.3859 0043693 197.0074 164.7479  1.00294001 22505
BEIDOU IGSO-6 (C13)     
1 41434U 16021A   21315.27760340 -.00000172  00000-0  00000+0 0  9997
2 41434  57.7821  55.1086 0044587 212.1704 338.7143  1.00284404 20642
BEIDOU-2 G7 (C03)       
1 41586U 16037A   21314.91795579 -.00000361  00000-0  00000-0 0  9995
2 41586   1.4979  64.9597 0007593   5.3795  60.9900  1.00273633 19952
BEIDOU-3 M1 (C19)       
1 43001U 17069A   21314.55813167  .00000058  00000-0  00000-0 0  9991
2 43001  55.4324 119.0290 0007074 290.8124  77.5949  1.86231782 27322
BEIDOU-3 M2 (C20)       
1 43002U 17069B   21315.36974814  .00000064  00000-0  00000+0 0  9995
2 43002  55.4328 119.0374 0005767 323.6094 272.2086  1.86231418 27320
BEIDOU-3 M3 (C27)       
1 43107U 18003A   21315.46581244 -.00000102  00000-0  00000+0 0  9996
2 43107  55.3644   0.1131 0003313  54.1161  52.0520  1.86232550 26091
BEIDOU-3 M4 (C28)       
1 43108U 18003B   21314.70606398 -.00000100  00000-0  00000+0 0  9999
2 43108  55.3570   0.1260 0004127 241.5492 120.3584  1.86230756 26080
BEIDOU-3 M5 (C21)       
1 43207U 18018A   21314.61330347  .00000058  00000-0  00000-0 0  9995
2 43207  55.3928 119.1488 0003926   3.4457 356.5615  1.86231455 25468
BEIDOU-3 M6 (C22)       
1 43208U 18018B   21314.68002736  .00000059  00000-0  00000+0 0  9991
2 43208  55.3919 119.1512 0005242 307.8369  52.1200  1.86231662 25462
BEIDOU-3 M7 (C29)       
1 43245U 18029A   21314.82697343 -.00000098  00000-0  00000-0 0  9999
2 43245  55.2887 357.9181 0001177 225.6483  82.5005  1.86232699 24614
BEIDOU-3 M8 (C30)       
1 43246U 18029B   21314.76087609 -.00000098  00000-0  10000-3 0  9995
2 43246  55.2863 357.9504 0003306 336.9644 333.2135  1.86233032 24600
BEIDOU IGSO-7 (C16)     
1 43539U 18057A   21314.84252248 -.00000106  00000-0  00000-0 0  9999
2 43539  55.0604 177.6475 0040280 221.8481  67.5469  1.00277228 12316
BEIDOU-3 M9 (C23)       
1 43581U 18062A   21314.90674862 -.00000030  00000-0  00000+0 0  9994
2 43581  54.3483 239.5733 0004970 287.8499 330.5235  1.86231952 22359
BEIDOU-3 M10 (C24)      
1 43582U 18062B   21314.76845238 -.00000028  00000-0  00000-0 0  9994
2 43582  54.3478 239.5679 0006026 347.8935 269.2860  1.86232456 22351
BEIDOU-3 M11 (C25)      
1 43602U 18067A   21314.70860545 -.00000027  00000-0  00000-0 0  9993
2 43602  54.4271 238.1657 0007407 358.5130 260.4178  1.86231573 21844
BEIDOU-3 M12 (C26)      
1 43603U 18067B   21314.84222424 -.00000029  00000-0  00000-0 0  9999
2 43603  54.4236 238.1282 0004798 344.8411 274.1031  1.86231523 21867
BEIDOU-3 M13 (C32)      
1 43622U 18072A   21315.21862742  .00000062  00000-0  00000+0 0  9996
2 43622  55.3578 118.6915 0003853 282.9058 258.3337  1.86231748 21381
BEIDOU-3 M14 (C33)      
1 43623U 18072B   21315.31703875  .00000063  00000-0  00000+0 0  9990
2 43623  55.3594 118.6800 0002413 336.5612   0.8928  1.86231764 21380
BEIDOU-3 M15 (C34)      
1 43647U 18078A   21315.55774006 -.00000100  00000-0  10000-3 0  9990
2 43647  55.1829 358.0697 0005673 348.2486  45.8247  1.86232502 20900
BEIDOU-3 M16 (C35)      
1 43648U 18078B   21314.67211420 -.00000099  00000-0  00000-0 0  9992
2 43648  55.1799 358.1070 0003252 358.4520  70.0534  1.86232380 20909
BEIDOU-3 G1 (C59)       
1 43683U 18085A   21314.64989542 -.00000286  00000-0  00000+0 0  9990
2 43683   0.8778 206.0242 0004827  40.9120 176.9333  1.00264882 11206
BEIDOU-3 M17 (C36)      
1 43706U 18093A   21314.72275820 -.00000027  00000-0  00000+0 0  9994
2 43706  54.4286 239.4498 0009905 280.3468  79.5625  1.86231762 20242
BEIDOU-3 M18 (C37)      
1 43707U 18093B   21314.85041022 -.00000029  00000-0  00000-0 0  9997
2 43707  54.4305 239.4357 0009443 300.6790 235.8265  1.86232279 20252
BEIDOU-3 IGSO-1 (C38)   
1 44204U 19023A   21313.68799635 -.00000229  00000-0  00000-0 0  9996
2 44204  56.2348  55.3445 0023221 187.9785 172.6153  1.00277510  9518
BEIDOU-2 G8             
1 44231U 19027A   21314.93789014 -.00000256  00000-0  00000-0 0  9999
2 44231   0.3797  51.7264 0007262 157.3063 323.3821  1.00266972  9238
BEIDOU-3 IGSO-2 (C39)   
1 44337U 19035A   21315.50719685 -.00000104  00000-0  00000+0 0  9997
2 44337  55.0990 173.6762 0020434 178.1429   1.0531  1.00267516  8868
BEIDOU-3 M23 (C45)      
1 44542U 19061A   21314.49623139 -.00000024  00000-0  10000-3 0  9995
2 44542  54.6548 239.5565 0009335 332.3095 279.3092  1.86231493 14502
BEIDOU-3 M24 (C46)      
1 44543U 19061B   21315.18064161 -.00000034  00000-0  10000-3 0  9998
2 44543  54.6535 239.5021 0006692 319.7415 301.7816  1.86231931 14516
BEIDOU-3 IGSO-3         
1 44709U 19073A   21315.59918447 -.00000178  00000-0  00000+0 0  9999
2 44709  57.6137 298.6390 0019638 187.3505 260.7520  1.00272897  7621
BEIDOU-3 M21            
1 44793U 19078A   21315.05968781 -.00000100  00000-0  10000-3 0  9994
2 44793  55.0326 358.1346 0005300 357.7103  16.6910  1.86232421 13381
BEIDOU-3 M22            
1 44794U 19078B   21314.63899313 -.00000099  00000-0  00000+0 0  9994
2 44794  55.0062 358.1455 0003335 349.2935  14.3034  1.86232910 13379
BEIDOU-3 M19            
1 44864U 19090A   21315.11929506  .00000061  00000-0  00000+0 0  9996
2 44864  55.2931 118.9174 0014227 263.6637 256.5347  1.86231901 12964
BEIDOU-3 M20            
1 44865U 19090B   21314.74146706  .00000059  00000-0  00000-0 0  9996
2 44865  55.2952 118.9617 0012424 280.7553  76.0291  1.86231910 12923
BEIDOU-3 G2             
1 45344U 20017A   21315.42756657 -.00000151  00000-0  00000+0 0  9991
2 45344   2.2578 342.1882 0002315 187.5610 115.0211  1.00270776  6437
BEIDOU-3 G3             
1 45807U 20040A   21315.07438668 -.00000363  00000-0  00000+0 0  9996
2 45807   1.9457 299.5820 0009740 340.9855 267.1425  1.00277266  5240
